{
  "type": "FeatureCollection",
  "features": [
    {
      "type": "Feature",
      "properties": {
        "norad_id": 35605,
        "name": "COSMOS 2251 DEB",
        "group": "cosmos-2251-debris",
        "lat": -23.776860152885185,
        "lon": -42.916142374055504,
        "alt_km": 460.014645328205,
        "timestamp": "2025-12-18T08:58:43.811097+00:00",
        "meta_object_name": "COSMOS 2251 DEB",
        "meta_object_id": "1993-036AMY",
        "meta_epoch": "2025-12-16T05:30:02.725344",
        "meta_mean_motion": 15.35586787,
        "meta_eccentricity": 0.00242235,
        "meta_inclination": 73.8701,
        "meta_ra_of_asc_node": 329.0606,
        "meta_arg_of_pericenter": 257.5437,
        "meta_mean_anomaly": 102.3057,
        "meta_ephemeris_type": 0,
        "meta_classification_type": "U",
        "meta_norad_cat_id": 35605,
        "meta_element_set_no": 999,
        "meta_rev_at_epoch": 66025,
        "meta_bstar": 0.0050760725,
        "meta_mean_motion_dot": 0.00181517,
        "meta_mean_motion_ddot": 0,
        "tle_line1": "1 35605U 93036AMY 25350.22919821  .00181517  00000+0  50761-2 0  9992",
        "tle_line2": "2 35605  73.8701 329.0606 0024223 257.5437 102.3057 15.35586787660251"
      },
      "geometry": {
        "type": "Point",
        "coordinates": [
          -42.916142374055504,
          -23.776860152885185
        ]
      }
    },
    {
      "type": "Feature",
      "properties": {
        "norad_id": 35606,
        "name": "COSMOS 2251 DEB",
        "group": "cosmos-2251-debris",
        "lat": 35.173207455855156,
        "lon": 13.62972396534648,
        "alt_km": 1438.166852057815,
        "timestamp": "2025-12-18T08:58:43.811107+00:00",
        "meta_object_name": "COSMOS 2251 DEB",
        "meta_object_id": "1993-036AMZ",
        "meta_epoch": "2025-12-17T18:27:28.365120",
        "meta_mean_motion": 13.41216697,
        "meta_eccentricity": 0.04572108,
        "meta_inclination": 73.8105,
        "meta_ra_of_asc_node": 2.7804,
        "meta_arg_of_pericenter": 207.7717,
        "meta_mean_anomaly": 149.8287,
        "meta_ephemeris_type": 0,
        "meta_classification_type": "U",
        "meta_norad_cat_id": 35606,
        "meta_element_set_no": 999,
        "meta_rev_at_epoch": 61107,
        "meta_bstar": 0.0003718916,
        "meta_mean_motion_dot": 3.59e-06,
        "meta_mean_motion_ddot": 0,
        "tle_line1": "1 35606U 93036AMZ 25351.76907830  .00000359  00000+0  37189-3 0  9994",
        "tle_line2": "2 35606  73.8105   2.7804 0457210 207.7717 149.8287 13.41216697611071"
      },
      "geometry": {
        "type": "Point",
        "coordinates": [
          13.62972396534648,
          35.173207455855156
        ]
      }
    },
    {
      "type": "Feature",
      "properties": {
        "norad_id": 35611,
        "name": "COSMOS 2251 DEB",
        "group": "cosmos-2251-debris",
        "lat": -45.93771784987404,
        "lon": 151.09069734939104,
        "alt_km": 652.952898810473,
        "timestamp": "2025-12-18T08:58:43.811117+00:00",
        "meta_object_name": "COSMOS 2251 DEB",
        "meta_object_id": "1993-036ANE",
        "meta_epoch": "2025-12-17T18:31:40.559808",
        "meta_mean_motion": 14.72982314,
        "meta_eccentricity": 0.00214251,
        "meta_inclination": 74.0185,
        "meta_ra_of_asc_node": 169.4894,
        "meta_arg_of_pericenter": 242.2412,
        "meta_mean_anomaly": 117.6589,
        "meta_ephemeris_type": 0,
        "meta_classification_type": "U",
        "meta_norad_cat_id": 35611,
        "meta_element_set_no": 999,
        "meta_rev_at_epoch": 87364,
        "meta_bstar": 0.0017452419,
        "meta_mean_motion_dot": 0.00011233,
        "meta_mean_motion_ddot": 0,
        "tle_line1": "1 35611U 93036ANE 25351.77199722  .00011233  00000+0  17452-2 0  9997",
        "tle_line2": "2 35611  74.0185 169.4894 0021425 242.2412 117.6589 14.72982314873641"
      },
      "geometry": {
        "type": "Point",
        "coordinates": [
          151.09069734939104,
          -45.93771784987404
        ]
      }
    },
    {
      "type": "Feature",
      "properties": {
        "norad_id": 35614,
        "name": "COSMOS 2251 DEB",
        "group": "cosmos-2251-debris",
        "lat": -45.25548401491167,
        "lon": -60.338064170782594,
        "alt_km": 719.0847571856111,
        "timestamp": "2025-12-18T08:58:43.811128+00:00",
        "meta_object_name": "COSMOS 2251 DEB",
        "meta_object_id": "1993-036ANH",
        "meta_epoch": "2025-12-16T14:38:48.350112",
        "meta_mean_motion": 14.67049199,
        "meta_eccentricity": 0.00754647,
        "meta_inclination": 73.9585,
        "meta_ra_of_asc_node": 319.9565,
        "meta_arg_of_pericenter": 173.4451,
        "meta_mean_anomaly": 186.7725,
        "meta_ephemeris_type": 0,
        "meta_classification_type": "U",
        "meta_norad_cat_id": 35614,
        "meta_element_set_no": 999,
        "meta_rev_at_epoch": 87786,
        "meta_bstar": 0.00058013984,
        "meta_mean_motion_dot": 3.364e-05,
        "meta_mean_motion_ddot": 0,
        "tle_line1": "1 35614U 93036ANH 25350.61028183  .00003364  00000+0  58014-3 0  9990",
        "tle_line2": "2 35614  73.9585 319.9565 0075464 173.4451 186.7725 14.67049199877869"
      },
      "geometry": {
        "type": "Point",
        "coordinates": [
          -60.338064170782594,
          -45.25548401491167
        ]
      }
    },
    {
      "type": "Feature",
      "properties": {
        "norad_id": 35645,
        "name": "COSMOS 2251 DEB",
        "group": "cosmos-2251-debris",
        "lat": -39.686894014812985,
        "lon": 63.37220005575661,
        "alt_km": 740.7261485621602,
        "timestamp": "2025-12-18T08:58:43.811138+00:00",
        "meta_object_name": "COSMOS 2251 DEB",
        "meta_object_id": "1993-036ANL",
        "meta_epoch": "2025-12-16T22:17:39.917472",
        "meta_mean_motion": 14.45645319,
        "meta_eccentricity": 0.00697437,
        "meta_inclination": 73.9648,
        "meta_ra_of_asc_node": 79.8852,
        "meta_arg_of_pericenter": 237.172,
        "meta_mean_anomaly": 122.271,
        "meta_ephemeris_type": 0,
        "meta_classification_type": "U",
        "meta_norad_cat_id": 35645,
        "meta_element_set_no": 999,
        "meta_rev_at_epoch": 86832,
        "meta_bstar": 0.0016093026,
        "meta_mean_motion_dot": 5.84e-05,
        "meta_mean_motion_ddot": 0,
        "tle_line1": "1 35645U 93036ANL 25350.92893423  .00005840  00000+0  16093-2 0  9996",
        "tle_line2": "2 35645  73.9648  79.8852 0069743 237.1720 122.2710 14.45645319868326"
      },
      "geometry": {
        "type": "Point",
        "coordinates": [
          63.37220005575661,
          -39.686894014812985
        ]
      }
    },
    {
      "type": "Feature",
      "properties": {
        "norad_id": 35646,
        "name": "COSMOS 2251 DEB",
        "group": "cosmos-2251-debris",
        "lat": -70.37584080667334,
        "lon": -7.151058060838934,
        "alt_km": 1298.4535017794205,
        "timestamp": "2025-12-18T08:58:43.811147+00:00",
        "meta_object_name": "COSMOS 2251 DEB",
        "meta_object_id": "1993-036ANM",
        "meta_epoch": "2025-12-17T10:13:49.217376",
        "meta_mean_motion": 13.40827908,
        "meta_eccentricity": 0.04565193,
        "meta_inclination": 73.8719,
        "meta_ra_of_asc_node": 48.5924,
        "meta_arg_of_pericenter": 157.9927,
        "meta_mean_anomaly": 225.3714,
        "meta_ephemeris_type": 0,
        "meta_classification_type": "U",
        "meta_norad_cat_id": 35646,
        "meta_element_set_no": 999,
        "meta_rev_at_epoch": 81921,
        "meta_bstar": 0.00049499491,
        "meta_mean_motion_dot": 4.84e-06,
        "meta_mean_motion_ddot": 0,
        "tle_line1": "1 35646U 93036ANM 25351.42626409  .00000484  00000+0  49499-3 0  9997",
        "tle_line2": "2 35646  73.8719  48.5924 0456519 157.9927 225.3714 13.40827908819210"
      },
      "geometry": {
        "type": "Point",
        "coordinates": [
          -7.151058060838934,
          -70.37584080667334
        ]
      }
    },
    {
      "type": "Feature",
      "properties": {
        "norad_id": 35647,
        "name": "COSMOS 2251 DEB",
        "group": "cosmos-2251-debris",
        "lat": -11.229320393681467,
        "lon": -79.17590941457567,
        "alt_km": 723.133973757871,
        "timestamp": "2025-12-18T08:58:43.811157+00:00",
        "meta_object_name": "COSMOS 2251 DEB",
        "meta_object_id": "1993-036ANN",
        "meta_epoch": "2025-12-16T12:07:42.204576",
        "meta_mean_motion": 14.43653976,
        "meta_eccentricity": 0.00457493,
        "meta_inclination": 74.0235,
        "meta_ra_of_asc_node": 287.5596,
        "meta_arg_of_pericenter": 25.7805,
        "meta_mean_anomaly": 334.5617,
        "meta_ephemeris_type": 0,
        "meta_classification_type": "U",
        "meta_norad_cat_id": 35647,
        "meta_element_set_no": 999,
        "meta_rev_at_epoch": 67718,
        "meta_bstar": 0.00059115508,
        "meta_mean_motion_dot": 2.005e-05,
        "meta_mean_motion_ddot": 0,
        "tle_line1": "1 35647U 93036ANN 25350.50534959  .00002005  00000+0  59116-3 0  9992",
        "tle_line2": "2 35647  74.0235 287.5596 0045749  25.7805 334.5617 14.43653976677182"
      },
      "geometry": {
        "type": "Point",
        "coordinates": [
          -79.17590941457567,
          -11.229320393681467
        ]
      }
    }
  ]
}